GLOBALSTAR M045         
1 25676U 99019A   25284.17255718 -.00000049  00000+0  39557-3 0  9996
2 25676  51.9990 334.6865 0000583 104.9017 289.6749 12.27066294207636
GLOBALSTAR M019         
1 25677U 99019B   25283.98158815 -.00000148  00000+0 -60250-3 0  9990
2 25677  51.9848 113.7424 0001288 150.1631  16.8375 12.13876216199200
GLOBALSTAR M044         
1 25678U 99019C   25284.17983147 -.00000081  00000+0  37293-4 0  9994
2 25678  51.9960  79.0607 0005310 260.7584 270.8446 11.90260888185132
GLOBALSTAR M042         
1 25679U 99019D   25284.22866373 -.00000102  00000+0 -91671-4 0  9997
2 25679  52.0003  83.3616 0003313 162.0023   8.2820 12.22089130199447
GLOBALSTAR M025         
1 25770U 99031A   25284.26134427 -.00000085  00000+0 -53231-3 0  9994
2 25770  51.9804 250.3771 0002413 346.2332 153.3234 11.22558047494742
GLOBALSTAR M049         
1 25771U 99031B   25284.29613638 -.00000059  00000+0  20557-3 0  9999
2 25771  51.9874 290.8977 0002623 215.1789 144.8835 11.12119839130346
GLOBALSTAR M047         
1 25772U 99031C   25284.27381777 -.00000058  00000+0  31855-3 0  9996
2 25772  51.9822 276.8255 0016470 101.2360 259.0298 11.31930251484252
GLOBALSTAR M052         
1 25773U 99031D   25284.30818715 -.00000029  00000+0  12355-2 0  9999
2 25773  51.9893  37.9042 0002433  21.5731   3.8745 11.15060912491464
